[
    {
        "Altitude(m)": 705375.5904203262,
        "Argument of Periapsis(deg)": 0.009112096949301655,
        "Eccentricity": 0.0,
        "Inclination(deg)": 45.0,
        "Latitude(deg)": 36.12511504285983,
        "Longitude(deg)": 82.83833346995245,
        "Mean Anomaly(deg)": 123.77207331798466,
        "RAAN(deg)": 49.99139844683344,
        "Satellite Name": "Constellation 1 227",
        "Satellite Number": 227,
        "Semi-Major Axis(m)": 7083131.272910544,
        "Time(s)": 152
    },
    {
        "Altitude(m)": 705369.7357294128,
        "Argument of Periapsis(deg)": 0.009172044955547059,
        "Eccentricity": 0.0,
        "Inclination(deg)": 45.0,
        "Latitude(deg)": 36.09546808279218,
        "Longitude(deg)": 82.89975237261716,
        "Mean Anomaly(deg)": 123.83277445823455,
        "RAAN(deg)": 49.99134185766787,
        "Satellite Name": "Constellation 1 227",
        "Satellite Number": 227,
        "Semi-Major Axis(m)": 7083131.272910544,
        "Time(s)": 153
    },
    {
        "Altitude(m)": 705363.8781360046,
        "Argument of Periapsis(deg)": 0.009231992961792466,
        "Eccentricity": 0.0,
        "Inclination(deg)": 45.0,
        "Latitude(deg)": 36.06578518011114,
        "Longitude(deg)": 82.96112207348047,
        "Mean Anomaly(deg)": 123.89347559848447,
        "RAAN(deg)": 49.9912852685023,
        "Satellite Name": "Constellation 1 227",
        "Satellite Number": 227,
        "Semi-Major Axis(m)": 7083131.272910544,
        "Time(s)": 154
    },
    {
        "Altitude(m)": 705358.0176770194,
        "Argument of Periapsis(deg)": 0.009291940968037872,
        "Eccentricity": 0.0,
        "Inclination(deg)": 45.0,
        "Latitude(deg)": 36.03606640004063,
        "Longitude(deg)": 83.02244260367031,
        "Mean Anomaly(deg)": 123.95417673873436,
        "RAAN(deg)": 49.99122867933673,
        "Satellite Name": "Constellation 1 227",
        "Satellite Number": 227,
        "Semi-Major Axis(m)": 7083131.272910544,
        "Time(s)": 155
    },
    {
        "Altitude(m)": 705352.1543894083,
        "Argument of Periapsis(deg)": 0.009351888974283276,
        "Eccentricity": 0.0,
        "Inclination(deg)": 45.0,
        "Latitude(deg)": 36.00631180774791,
        "Longitude(deg)": 83.08371382646456,
        "Mean Anomaly(deg)": 124.01487787898428,
        "RAAN(deg)": 49.991172090171155,
        "Satellite Name": "Constellation 1 227",
        "Satellite Number": 227,
        "Semi-Major Axis(m)": 7083131.272910544,
        "Time(s)": 156
    },
    {
        "Altitude(m)": 705346.2883101418,
        "Argument of Periapsis(deg)": 0.00941183698052868,
        "Eccentricity": 0.0,
        "Inclination(deg)": 45.0,
        "Latitude(deg)": 35.97652146834408,
        "Longitude(deg)": 83.14493610967776,
        "Mean Anomaly(deg)": 124.07557901923415,
        "RAAN(deg)": 49.99111550100558,
        "Satellite Name": "Constellation 1 227",
        "Satellite Number": 227,
        "Semi-Major Axis(m)": 7083131.272910544,
        "Time(s)": 157
    },
    {
        "Altitude(m)": 705340.4194762289,
        "Argument of Periapsis(deg)": 0.009471784986774088,
        "Eccentricity": 0.0,
        "Inclination(deg)": 45.0,
        "Latitude(deg)": 35.94669544688304,
        "Longitude(deg)": 83.2061093170768,
        "Mean Anomaly(deg)": 124.13628015948406,
        "RAAN(deg)": 49.99105891184002,
        "Satellite Name": "Constellation 1 227",
        "Satellite Number": 227,
        "Semi-Major Axis(m)": 7083131.272910544,
        "Time(s)": 158
    },
    {
        "Altitude(m)": 705334.5479247081,
        "Argument of Periapsis(deg)": 0.009531732993019492,
        "Eccentricity": 0.0,
        "Inclination(deg)": 45.0,
        "Latitude(deg)": 35.9168338083617,
        "Longitude(deg)": 83.26723348076864,
        "Mean Anomaly(deg)": 124.19698129973395,
        "RAAN(deg)": 49.99100232267445,
        "Satellite Name": "Constellation 1 227",
        "Satellite Number": 227,
        "Semi-Major Axis(m)": 7083131.272910544,
        "Time(s)": 159
    },
    {
        "Altitude(m)": 705328.673692643,
        "Argument of Periapsis(deg)": 0.009591680999264898,
        "Eccentricity": 0.0,
        "Inclination(deg)": 45.0,
        "Latitude(deg)": 35.88693661771971,
        "Longitude(deg)": 83.32830863310154,
        "Mean Anomaly(deg)": 124.25768243998387,
        "RAAN(deg)": 49.99094573350888,
        "Satellite Name": "Constellation 1 227",
        "Satellite Number": 227,
        "Semi-Major Axis(m)": 7083131.272910544,
        "Time(s)": 160
    },
    {
        "Altitude(m)": 705322.7968171296,
        "Argument of Periapsis(deg)": 0.009651629005510304,
        "Eccentricity": 0.0,
        "Inclination(deg)": 45.0,
        "Latitude(deg)": 35.857003939839004,
        "Longitude(deg)": 83.3893348066638,
        "Mean Anomaly(deg)": 124.31838358023376,
        "RAAN(deg)": 49.990889144343306,
        "Satellite Name": "Constellation 1 227",
        "Satellite Number": 227,
        "Semi-Major Axis(m)": 7083131.272910544,
        "Time(s)": 161
    },
    {
        "Altitude(m)": 705316.917335287,
        "Argument of Periapsis(deg)": 0.00971157701175571,
        "Eccentricity": 0.0,
        "Inclination(deg)": 45.0,
        "Latitude(deg)": 35.82703583954388,
        "Longitude(deg)": 83.45031203428229,
        "Mean Anomaly(deg)": 124.37908472048368,
        "RAAN(deg)": 49.99083255517775,
        "Satellite Name": "Constellation 1 227",
        "Satellite Number": 227,
        "Semi-Major Axis(m)": 7083131.272910544,
        "Time(s)": 162
    },
    {
        "Altitude(m)": 705311.0352842704,
        "Argument of Periapsis(deg)": 0.009771525018001118,
        "Eccentricity": 0.0,
        "Inclination(deg)": 45.0,
        "Latitude(deg)": 35.79703238160043,
        "Longitude(deg)": 83.51124018092413,
        "Mean Anomaly(deg)": 124.43978586073355,
        "RAAN(deg)": 49.99077596601217,
        "Satellite Name": "Constellation 1 227",
        "Satellite Number": 227,
        "Semi-Major Axis(m)": 7083131.272910544,
        "Time(s)": 163
    },
    {
        "Altitude(m)": 705305.1507012655,
        "Argument of Periapsis(deg)": 0.00983147302424652,
        "Eccentricity": 0.0,
        "Inclination(deg)": 45.0,
        "Latitude(deg)": 35.766993630716655,
        "Longitude(deg)": 83.57211961608442,
        "Mean Anomaly(deg)": 124.50048700098345,
        "RAAN(deg)": 49.990719376846606,
        "Satellite Name": "Constellation 1 227",
        "Satellite Number": 227,
        "Semi-Major Axis(m)": 7083131.272910544,
        "Time(s)": 164
    },
    {
        "Altitude(m)": 705299.2636234729,
        "Argument of Periapsis(deg)": 0.009891421030491928,
        "Eccentricity": 0.0,
        "Inclination(deg)": 45.0,
        "Latitude(deg)": 35.736919651541896,
        "Longitude(deg)": 83.63295020520103,
        "Mean Anomaly(deg)": 124.56118814123334,
        "RAAN(deg)": 49.99066278768103,
        "Satellite Name": "Constellation 1 227",
        "Satellite Number": 227,
        "Semi-Major Axis(m)": 7083131.272910544,
        "Time(s)": 165
    },
    {
        "Altitude(m)": 705293.3740881337,
        "Argument of Periapsis(deg)": 0.009951369036737332,
        "Eccentricity": 0.0,
        "Inclination(deg)": 45.0,
        "Latitude(deg)": 35.70681050866671,
        "Longitude(deg)": 83.69373198204283,
        "Mean Anomaly(deg)": 124.62188928148326,
        "RAAN(deg)": 49.990606198515465,
        "Satellite Name": "Constellation 1 227",
        "Satellite Number": 227,
        "Semi-Major Axis(m)": 7083131.272910544,
        "Time(s)": 166
    },
    {
        "Altitude(m)": 705287.482132516,
        "Argument of Periapsis(deg)": 0.010011317042982738,
        "Eccentricity": 0.0,
        "Inclination(deg)": 45.0,
        "Latitude(deg)": 35.67666626662285,
        "Longitude(deg)": 83.75446498061045,
        "Mean Anomaly(deg)": 124.68259042173315,
        "RAAN(deg)": 49.99054960934989,
        "Satellite Name": "Constellation 1 227",
        "Satellite Number": 227,
        "Semi-Major Axis(m)": 7083131.272910544,
        "Time(s)": 167
    },
    {
        "Altitude(m)": 705281.5877939118,
        "Argument of Periapsis(deg)": 0.010071265049228144,
        "Eccentricity": 0.0,
        "Inclination(deg)": 45.0,
        "Latitude(deg)": 35.646486989882746,
        "Longitude(deg)": 83.81514923513578,
        "Mean Anomaly(deg)": 124.74329156198307,
        "RAAN(deg)": 49.990493020184324,
        "Satellite Name": "Constellation 1 227",
        "Satellite Number": 227,
        "Semi-Major Axis(m)": 7083131.272910544,
        "Time(s)": 168
    },
    {
        "Altitude(m)": 705275.6911096387,
        "Argument of Periapsis(deg)": 0.01013121305547355,
        "Eccentricity": 0.0,
        "Inclination(deg)": 45.0,
        "Latitude(deg)": 35.61627274285943,
        "Longitude(deg)": 83.87578478008002,
        "Mean Anomaly(deg)": 124.80399270223295,
        "RAAN(deg)": 49.99043643101875,
        "Satellite Name": "Constellation 1 227",
        "Satellite Number": 227,
        "Semi-Major Axis(m)": 7083131.272910544,
        "Time(s)": 169
    },
    {
        "Altitude(m)": 705269.7921170526,
        "Argument of Periapsis(deg)": 0.010191161061718957,
        "Eccentricity": 0.0,
        "Inclination(deg)": 45.0,
        "Latitude(deg)": 35.586023589906276,
        "Longitude(deg)": 83.93637165013288,
        "Mean Anomaly(deg)": 124.86469384248285,
        "RAAN(deg)": 49.99037984185319,
        "Satellite Name": "Constellation 1 227",
        "Satellite Number": 227,
        "Semi-Major Axis(m)": 7083131.272910544,
        "Time(s)": 170
    }
]